CCSDS_OMM_VERS = 2.0
CREATION_DATE  = 
ORIGINATOR     = 

OBJECT_NAME    = UNKNOWN
OBJECT_ID      = 
CENTER_NAME    = EARTH
REF_FRAME      = TEME
TIME_SYSTEM    = UTC
MEAN_ELEMENT_THEORY = SGP/SGP4

EPOCH          = 2026-01-28T04:20:26.073312
MEAN_MOTION    = 12.95830084
ECCENTRICITY   = .00502126
INCLINATION    = 90.2489
RA_OF_ASC_NODE = 7.4474
ARG_OF_PERICENTER = 186.1265
MEAN_ANOMALY   = 173.9247

EPHEMERIS_TYPE = 0
CLASSIFICATION_TYPE = U
NORAD_CAT_ID   = 270019
ELEMENT_SET_NO = 999
REV_AT_EPOCH   = 29179
BSTAR          = .83707934E-3
MEAN_MOTION_DOT = .246E-5
MEAN_MOTION_DDOT = 0

CCSDS_OMM_VERS = 2.0
CREATION_DATE  = 
ORIGINATOR     = 

OBJECT_NAME    = UNKNOWN
OBJECT_ID      = 
CENTER_NAME    = EARTH
REF_FRAME      = TEME
TIME_SYSTEM    = UTC
MEAN_ELEMENT_THEORY = SGP/SGP4

EPOCH          = 2026-01-27T12:59:31.739712
MEAN_MOTION    = 13.96374498
ECCENTRICITY   = .00185195
INCLINATION    = 82.5376
RA_OF_ASC_NODE = 128.5664
ARG_OF_PERICENTER = 46.3879
MEAN_ANOMALY   = 313.8821

EPHEMERIS_TYPE = 0
CLASSIFICATION_TYPE = U
NORAD_CAT_ID   = 270020
ELEMENT_SET_NO = 999
REV_AT_EPOCH   = 31335
BSTAR          = .14551727E-2
MEAN_MOTION_DOT = .2023E-4
MEAN_MOTION_DDOT = 0

CCSDS_OMM_VERS = 2.0
CREATION_DATE  = 
ORIGINATOR     = 

OBJECT_NAME    = UNKNOWN
OBJECT_ID      = 
CENTER_NAME    = EARTH
REF_FRAME      = TEME
TIME_SYSTEM    = UTC
MEAN_ELEMENT_THEORY = SGP/SGP4

EPOCH          = 2026-01-26T15:14:14.924544
MEAN_MOTION    = 12.65861274
ECCENTRICITY   = .00550029
INCLINATION    = 82.7185
RA_OF_ASC_NODE = 155.9811
ARG_OF_PERICENTER = 332.0813
MEAN_ANOMALY   = 27.7332

EPHEMERIS_TYPE = 0
CLASSIFICATION_TYPE = U
NORAD_CAT_ID   = 270021
ELEMENT_SET_NO = 999
REV_AT_EPOCH   = 28474
BSTAR          = .23947333E-2
MEAN_MOTION_DOT = .462E-5
MEAN_MOTION_DDOT = 0

CCSDS_OMM_VERS = 2.0
CREATION_DATE  = 
ORIGINATOR     = 

OBJECT_NAME    = UNKNOWN
OBJECT_ID      = 
CENTER_NAME    = EARTH
REF_FRAME      = TEME
TIME_SYSTEM    = UTC
MEAN_ELEMENT_THEORY = SGP/SGP4

EPOCH          = 2026-01-25T07:18:08.229024
MEAN_MOTION    = 12.65405503
ECCENTRICITY   = .0586028
INCLINATION    = 100.1310
RA_OF_ASC_NODE = 237.0403
ARG_OF_PERICENTER = 340.5059
MEAN_ANOMALY   = 17.4434

EPHEMERIS_TYPE = 0
CLASSIFICATION_TYPE = U
NORAD_CAT_ID   = 270022
ELEMENT_SET_NO = 999
REV_AT_EPOCH   = 28124
BSTAR          = .203566E-1
MEAN_MOTION_DOT = .742E-4
MEAN_MOTION_DDOT = 0

CCSDS_OMM_VERS = 2.0
CREATION_DATE  = 
ORIGINATOR     = 

OBJECT_NAME    = UNKNOWN
OBJECT_ID      = 
CENTER_NAME    = EARTH
REF_FRAME      = TEME
TIME_SYSTEM    = UTC
MEAN_ELEMENT_THEORY = SGP/SGP4

EPOCH          = 2026-01-27T17:23:19.415328
MEAN_MOTION    = 12.45726633
ECCENTRICITY   = .00245647
INCLINATION    = 73.6368
RA_OF_ASC_NODE = 196.3289
ARG_OF_PERICENTER = 350.9449
MEAN_ANOMALY   = 9.1151

EPHEMERIS_TYPE = 0
CLASSIFICATION_TYPE = U
NORAD_CAT_ID   = 270023
ELEMENT_SET_NO = 999
REV_AT_EPOCH   = 28044
BSTAR          = .2372867E-2
MEAN_MOTION_DOT = .324E-5
MEAN_MOTION_DDOT = 0

CCSDS_OMM_VERS = 2.0
CREATION_DATE  = 
ORIGINATOR     = 

OBJECT_NAME    = UNKNOWN
OBJECT_ID      = 
CENTER_NAME    = EARTH
REF_FRAME      = TEME
TIME_SYSTEM    = UTC
MEAN_ELEMENT_THEORY = SGP/SGP4

EPOCH          = 2026-01-05T19:18:32.126400
MEAN_MOTION    = 12.62476679
ECCENTRICITY   = .000083
INCLINATION    = 51.9814
RA_OF_ASC_NODE = 52.8413
ARG_OF_PERICENTER = 124.1134
MEAN_ANOMALY   = 235.9812

EPHEMERIS_TYPE = 0
CLASSIFICATION_TYPE = U
NORAD_CAT_ID   = 270024
ELEMENT_SET_NO = 999
REV_AT_EPOCH   = 28195
BSTAR          = .20615479E-3
MEAN_MOTION_DOT = -.67E-6
MEAN_MOTION_DDOT = 0

CCSDS_OMM_VERS = 2.0
CREATION_DATE  = 
ORIGINATOR     = 

OBJECT_NAME    = UNKNOWN
OBJECT_ID      = 
CENTER_NAME    = EARTH
REF_FRAME      = TEME
TIME_SYSTEM    = UTC
MEAN_ELEMENT_THEORY = SGP/SGP4

EPOCH          = 2026-01-20T14:57:40.494240
MEAN_MOTION    = 14.22281858
ECCENTRICITY   = .00743994
INCLINATION    = 98.5947
RA_OF_ASC_NODE = 344.0552
ARG_OF_PERICENTER = 322.7864
MEAN_ANOMALY   = 36.8171

EPHEMERIS_TYPE = 0
CLASSIFICATION_TYPE = U
NORAD_CAT_ID   = 270025
ELEMENT_SET_NO = 999
REV_AT_EPOCH   = 31827
BSTAR          = .11049425E-2
MEAN_MOTION_DOT = .2482E-4
MEAN_MOTION_DDOT = 0

CCSDS_OMM_VERS = 2.0
CREATION_DATE  = 
ORIGINATOR     = 

OBJECT_NAME    = UNKNOWN
OBJECT_ID      = 
CENTER_NAME    = EARTH
REF_FRAME      = TEME
TIME_SYSTEM    = UTC
MEAN_ELEMENT_THEORY = SGP/SGP4

EPOCH          = 2026-01-24T00:41:30.372864
MEAN_MOTION    = 11.92175079
ECCENTRICITY   = .03963482
INCLINATION    = 103.3396
RA_OF_ASC_NODE = 144.3064
ARG_OF_PERICENTER = 237.6164
MEAN_ANOMALY   = 118.5930

EPHEMERIS_TYPE = 0
CLASSIFICATION_TYPE = U
NORAD_CAT_ID   = 270026
ELEMENT_SET_NO = 999
REV_AT_EPOCH   = 26788
BSTAR          = .20160659E-1
MEAN_MOTION_DOT = .1799E-4
MEAN_MOTION_DDOT = 0

CCSDS_OMM_VERS = 2.0
CREATION_DATE  = 
ORIGINATOR     = 

OBJECT_NAME    = UNKNOWN
OBJECT_ID      = 
CENTER_NAME    = EARTH
REF_FRAME      = TEME
TIME_SYSTEM    = UTC
MEAN_ELEMENT_THEORY = SGP/SGP4

EPOCH          = 2026-01-22T09:27:05.389632
MEAN_MOTION    = 11.80235282
ECCENTRICITY   = .04895505
INCLINATION    = 100.9411
RA_OF_ASC_NODE = 263.6524
ARG_OF_PERICENTER = 71.2007
MEAN_ANOMALY   = 294.1470

EPHEMERIS_TYPE = 0
CLASSIFICATION_TYPE = U
NORAD_CAT_ID   = 270027
ELEMENT_SET_NO = 999
REV_AT_EPOCH   = 26475
BSTAR          = .49995719E-1
MEAN_MOTION_DOT = .4351E-4
MEAN_MOTION_DDOT = 0

CCSDS_OMM_VERS = 2.0
CREATION_DATE  = 
ORIGINATOR     = 

OBJECT_NAME    = UNKNOWN
OBJECT_ID      = 
CENTER_NAME    = EARTH
REF_FRAME      = TEME
TIME_SYSTEM    = UTC
MEAN_ELEMENT_THEORY = SGP/SGP4

EPOCH          = 2026-01-27T12:55:03.173088
MEAN_MOTION    = 13.96369577
ECCENTRICITY   = .00053913
INCLINATION    = 82.5209
RA_OF_ASC_NODE = 122.1038
ARG_OF_PERICENTER = 258.7148
MEAN_ANOMALY   = 101.3413

EPHEMERIS_TYPE = 0
CLASSIFICATION_TYPE = U
NORAD_CAT_ID   = 270029
ELEMENT_SET_NO = 999
REV_AT_EPOCH   = 31327
BSTAR          = .28999883E-2
MEAN_MOTION_DOT = .4012E-4
MEAN_MOTION_DDOT = 0

CCSDS_OMM_VERS = 2.0
CREATION_DATE  = 
ORIGINATOR     = 

OBJECT_NAME    = UNKNOWN
OBJECT_ID      = 
CENTER_NAME    = EARTH
REF_FRAME      = TEME
TIME_SYSTEM    = UTC
MEAN_ELEMENT_THEORY = SGP/SGP4

EPOCH          = 2026-01-23T16:12:16.454016
MEAN_MOTION    = 13.02085161
ECCENTRICITY   = .00357226
INCLINATION    = 90.2669
RA_OF_ASC_NODE = 18.0440
ARG_OF_PERICENTER = 309.7231
MEAN_ANOMALY   = 50.0745

EPHEMERIS_TYPE = 0
CLASSIFICATION_TYPE = U
NORAD_CAT_ID   = 270030
ELEMENT_SET_NO = 999
REV_AT_EPOCH   = 29252
BSTAR          = .30147453E-2
MEAN_MOTION_DOT = .944E-5
MEAN_MOTION_DDOT = 0

CCSDS_OMM_VERS = 2.0
CREATION_DATE  = 
ORIGINATOR     = 

OBJECT_NAME    = UNKNOWN
OBJECT_ID      = 
CENTER_NAME    = EARTH
REF_FRAME      = TEME
TIME_SYSTEM    = UTC
MEAN_ELEMENT_THEORY = SGP/SGP4

EPOCH          = 2026-01-24T16:35:09.390624
MEAN_MOTION    = 13.00207728
ECCENTRICITY   = .00089792
INCLINATION    = 90.2582
RA_OF_ASC_NODE = 17.4737
ARG_OF_PERICENTER = 358.5879
MEAN_ANOMALY   = 1.5216

EPHEMERIS_TYPE = 0
CLASSIFICATION_TYPE = U
NORAD_CAT_ID   = 270031
ELEMENT_SET_NO = 999
REV_AT_EPOCH   = 29205
BSTAR          = -.77232351E-3
MEAN_MOTION_DOT = -.226E-5
MEAN_MOTION_DDOT = 0

CCSDS_OMM_VERS = 2.0
CREATION_DATE  = 
ORIGINATOR     = 

OBJECT_NAME    = UNKNOWN
OBJECT_ID      = 
CENTER_NAME    = EARTH
REF_FRAME      = TEME
TIME_SYSTEM    = UTC
MEAN_ELEMENT_THEORY = SGP/SGP4

EPOCH          = 2026-01-26T20:25:02.457696
MEAN_MOTION    = 11.80645206
ECCENTRICITY   = .02440103
INCLINATION    = 81.2994
RA_OF_ASC_NODE = 238.0848
ARG_OF_PERICENTER = 90.5830
MEAN_ANOMALY   = 272.3173

EPHEMERIS_TYPE = 0
CLASSIFICATION_TYPE = U
NORAD_CAT_ID   = 270032
ELEMENT_SET_NO = 999
REV_AT_EPOCH   = 26578
BSTAR          = .20076252E-1
MEAN_MOTION_DOT = .1395E-4
MEAN_MOTION_DDOT = 0

CCSDS_OMM_VERS = 2.0
CREATION_DATE  = 
ORIGINATOR     = 

OBJECT_NAME    = UNKNOWN
OBJECT_ID      = 
CENTER_NAME    = EARTH
REF_FRAME      = TEME
TIME_SYSTEM    = UTC
MEAN_ELEMENT_THEORY = SGP/SGP4

EPOCH          = 2026-01-27T04:38:39.002208
MEAN_MOTION    = 13.72047573
ECCENTRICITY   = .05738068
INCLINATION    = 81.9689
RA_OF_ASC_NODE = 198.4238
ARG_OF_PERICENTER = 320.8059
MEAN_ANOMALY   = 35.2819

EPHEMERIS_TYPE = 0
CLASSIFICATION_TYPE = U
NORAD_CAT_ID   = 270033
ELEMENT_SET_NO = 999
REV_AT_EPOCH   = 30826
BSTAR          = .39312153E-3
MEAN_MOTION_DOT = .1196E-4
MEAN_MOTION_DDOT = 0

CCSDS_OMM_VERS = 2.0
CREATION_DATE  = 
ORIGINATOR     = 

OBJECT_NAME    = UNKNOWN
OBJECT_ID      = 
CENTER_NAME    = EARTH
REF_FRAME      = TEME
TIME_SYSTEM    = UTC
MEAN_ELEMENT_THEORY = SGP/SGP4

EPOCH          = 2026-01-23T12:17:49.888608
MEAN_MOTION    = 13.26597188
ECCENTRICITY   = .06229743
INCLINATION    = 99.3517
RA_OF_ASC_NODE = 298.4475
ARG_OF_PERICENTER = 182.8376
MEAN_ANOMALY   = 176.9145

EPHEMERIS_TYPE = 0
CLASSIFICATION_TYPE = U
NORAD_CAT_ID   = 270034
ELEMENT_SET_NO = 999
REV_AT_EPOCH   = 8412
BSTAR          = .36629966E-2
MEAN_MOTION_DOT = .4673E-4
MEAN_MOTION_DDOT = 0

CCSDS_OMM_VERS = 2.0
CREATION_DATE  = 
ORIGINATOR     = 

OBJECT_NAME    = UNKNOWN
OBJECT_ID      = 
CENTER_NAME    = EARTH
REF_FRAME      = TEME
TIME_SYSTEM    = UTC
MEAN_ELEMENT_THEORY = SGP/SGP4

EPOCH          = 2026-01-27T09:49:02.252640
MEAN_MOTION    = 14.00399661
ECCENTRICITY   = .0088552
INCLINATION    = 82.4426
RA_OF_ASC_NODE = 275.3185
ARG_OF_PERICENTER = 179.0553
MEAN_ANOMALY   = 181.0801

EPHEMERIS_TYPE = 0
CLASSIFICATION_TYPE = U
NORAD_CAT_ID   = 270035
ELEMENT_SET_NO = 999
REV_AT_EPOCH   = 31373
BSTAR          = .1741562E-2
MEAN_MOTION_DOT = .2683E-4
MEAN_MOTION_DDOT = 0

